STARLINK-36796          
1 67722U 26026B   26064.91668981 -.01886910  00000+0 -25160-1 0  9995
2 67722  97.2837 119.3634 0001410  78.6253 282.4879 15.61266693  4702
STARLINK-36369          
1 67723U 26026C   26064.91668981 -.01935439  00000+0 -25465-1 0  9995
2 67723  97.2835 119.3654 0001634  59.9214 313.6575 15.61692674  4702
STARLINK-36752          
1 67724U 26026D   26064.91668981 -.01943398  00000+0 -24321-1 0  9999
2 67724  97.2837 119.3777 0001696  63.7102 337.9272 15.62987082  4702
STARLINK-36754          
1 67725U 26026E   26064.91668981 -.01879126  00000+0 -25924-1 0  9997
2 67725  97.2840 119.3657 0001402  75.3486 290.0840 15.60370836  4704
STARLINK-36755          
1 67726U 26026F   26064.91668981 -.01857292  00000+0 -28084-1 0  9998
2 67726  97.2831 119.3484 0001625  89.2348 238.5782 15.57921961  4700
STARLINK-36741          
1 67727U 26026G   26064.91668981 -.01867405  00000+0 -27084-1 0  9995
2 67727  97.2834 119.3596 0001379  85.7006 268.5003 15.59042612  4704
STARLINK-36757          
1 67728U 26026H   26064.91668981 -.01941450  00000+0 -23764-1 0  9990
2 67728  97.2837 119.3922 0001845  61.6971  13.8662 15.63544126  4707
STARLINK-36751          
1 67729U 26026J   26064.91668981 -.01944051  00000+0 -23269-1 0  9991
2 67729  97.2839 119.4019 0001853  64.4631  33.4243 15.64113869  4701
STARLINK-36747          
1 67730U 26026K   26064.91668981 -.01940680  00000+0 -23318-1 0  9992
2 67730  97.2837 119.3977 0001827  61.8054  26.0975 15.64012451  4709
STARLINK-36315          
1 67731U 26026L   26064.91668981 -.01942892  00000+0 -23094-1 0  9991
2 67731  97.2838 119.4057 0001704  76.1790  29.7053 15.64289192  4706
STARLINK-36260          
1 67732U 26026M   26064.91668981 -.01944597  00000+0 -22766-1 0  9991
2 67732  97.2837 119.4107 0001983  71.3044  46.6150 15.64669890  4703
STARLINK-36746          
1 67733U 26026N   26064.91668981 -.00070824  00000+0 -13104-2 0  9991
2 67733  97.2843 119.2245 0001425  63.3670 337.1826 15.49229129  4707
