CCSDS_OMM_VERS = 2.0
CREATION_DATE  = 
ORIGINATOR     = 

OBJECT_NAME    = STARLINK-36796
OBJECT_ID      = 2026-026B
CENTER_NAME    = EARTH
REF_FRAME      = TEME
TIME_SYSTEM    = UTC
MEAN_ELEMENT_THEORY = SGP/SGP4

EPOCH          = 2026-03-05T22:00:01.999584
MEAN_MOTION    = 15.61266693
ECCENTRICITY   = .00014103
INCLINATION    = 97.2837
RA_OF_ASC_NODE = 119.3634
ARG_OF_PERICENTER = 78.6253
MEAN_ANOMALY   = 282.4879

EPHEMERIS_TYPE = 0
CLASSIFICATION_TYPE = U
NORAD_CAT_ID   = 67722
ELEMENT_SET_NO = 999
REV_AT_EPOCH   = 470
BSTAR          = -.25159858E-1
MEAN_MOTION_DOT = -.188691E-1
MEAN_MOTION_DDOT = 0

CCSDS_OMM_VERS = 2.0
CREATION_DATE  = 
ORIGINATOR     = 

OBJECT_NAME    = STARLINK-36369
OBJECT_ID      = 2026-026C
CENTER_NAME    = EARTH
REF_FRAME      = TEME
TIME_SYSTEM    = UTC
MEAN_ELEMENT_THEORY = SGP/SGP4

EPOCH          = 2026-03-05T22:00:01.999584
MEAN_MOTION    = 15.61692674
ECCENTRICITY   = .00016347
INCLINATION    = 97.2835
RA_OF_ASC_NODE = 119.3654
ARG_OF_PERICENTER = 59.9214
MEAN_ANOMALY   = 313.6575

EPHEMERIS_TYPE = 0
CLASSIFICATION_TYPE = U
NORAD_CAT_ID   = 67723
ELEMENT_SET_NO = 999
REV_AT_EPOCH   = 470
BSTAR          = -.25465453E-1
MEAN_MOTION_DOT = -.1935439E-1
MEAN_MOTION_DDOT = 0

CCSDS_OMM_VERS = 2.0
CREATION_DATE  = 
ORIGINATOR     = 

OBJECT_NAME    = STARLINK-36752
OBJECT_ID      = 2026-026D
CENTER_NAME    = EARTH
REF_FRAME      = TEME
TIME_SYSTEM    = UTC
MEAN_ELEMENT_THEORY = SGP/SGP4

EPOCH          = 2026-03-05T22:00:01.999584
MEAN_MOTION    = 15.62987082
ECCENTRICITY   = .00016964
INCLINATION    = 97.2837
RA_OF_ASC_NODE = 119.3777
ARG_OF_PERICENTER = 63.7102
MEAN_ANOMALY   = 337.9272

EPHEMERIS_TYPE = 0
CLASSIFICATION_TYPE = U
NORAD_CAT_ID   = 67724
ELEMENT_SET_NO = 999
REV_AT_EPOCH   = 470
BSTAR          = -.24320698E-1
MEAN_MOTION_DOT = -.1943398E-1
MEAN_MOTION_DDOT = 0

CCSDS_OMM_VERS = 2.0
CREATION_DATE  = 
ORIGINATOR     = 

OBJECT_NAME    = STARLINK-36754
OBJECT_ID      = 2026-026E
CENTER_NAME    = EARTH
REF_FRAME      = TEME
TIME_SYSTEM    = UTC
MEAN_ELEMENT_THEORY = SGP/SGP4

EPOCH          = 2026-03-05T22:00:01.999584
MEAN_MOTION    = 15.60370836
ECCENTRICITY   = .00014028
INCLINATION    = 97.2840
RA_OF_ASC_NODE = 119.3657
ARG_OF_PERICENTER = 75.3486
MEAN_ANOMALY   = 290.0840

EPHEMERIS_TYPE = 0
CLASSIFICATION_TYPE = U
NORAD_CAT_ID   = 67725
ELEMENT_SET_NO = 999
REV_AT_EPOCH   = 470
BSTAR          = -.25924171E-1
MEAN_MOTION_DOT = -.1879126E-1
MEAN_MOTION_DDOT = 0

CCSDS_OMM_VERS = 2.0
CREATION_DATE  = 
ORIGINATOR     = 

OBJECT_NAME    = STARLINK-36755
OBJECT_ID      = 2026-026F
CENTER_NAME    = EARTH
REF_FRAME      = TEME
TIME_SYSTEM    = UTC
MEAN_ELEMENT_THEORY = SGP/SGP4

EPOCH          = 2026-03-05T22:00:01.999584
MEAN_MOTION    = 15.57921961
ECCENTRICITY   = .00016251
INCLINATION    = 97.2831
RA_OF_ASC_NODE = 119.3484
ARG_OF_PERICENTER = 89.2348
MEAN_ANOMALY   = 238.5782

EPHEMERIS_TYPE = 0
CLASSIFICATION_TYPE = U
NORAD_CAT_ID   = 67726
ELEMENT_SET_NO = 999
REV_AT_EPOCH   = 470
BSTAR          = -.28083849E-1
MEAN_MOTION_DOT = -.1857292E-1
MEAN_MOTION_DDOT = 0

CCSDS_OMM_VERS = 2.0
CREATION_DATE  = 
ORIGINATOR     = 

OBJECT_NAME    = STARLINK-36741
OBJECT_ID      = 2026-026G
CENTER_NAME    = EARTH
REF_FRAME      = TEME
TIME_SYSTEM    = UTC
MEAN_ELEMENT_THEORY = SGP/SGP4

EPOCH          = 2026-03-05T22:00:01.999584
MEAN_MOTION    = 15.59042612
ECCENTRICITY   = .00013797
INCLINATION    = 97.2834
RA_OF_ASC_NODE = 119.3596
ARG_OF_PERICENTER = 85.7006
MEAN_ANOMALY   = 268.5003

EPHEMERIS_TYPE = 0
CLASSIFICATION_TYPE = U
NORAD_CAT_ID   = 67727
ELEMENT_SET_NO = 999
REV_AT_EPOCH   = 470
BSTAR          = -.27084172E-1
MEAN_MOTION_DOT = -.1867405E-1
MEAN_MOTION_DDOT = 0

CCSDS_OMM_VERS = 2.0
CREATION_DATE  = 
ORIGINATOR     = 

OBJECT_NAME    = STARLINK-36757
OBJECT_ID      = 2026-026H
CENTER_NAME    = EARTH
REF_FRAME      = TEME
TIME_SYSTEM    = UTC
MEAN_ELEMENT_THEORY = SGP/SGP4

EPOCH          = 2026-03-05T22:00:01.999584
MEAN_MOTION    = 15.63544126
ECCENTRICITY   = .00018455
INCLINATION    = 97.2837
RA_OF_ASC_NODE = 119.3922
ARG_OF_PERICENTER = 61.6971
MEAN_ANOMALY   = 13.8662

EPHEMERIS_TYPE = 0
CLASSIFICATION_TYPE = U
NORAD_CAT_ID   = 67728
ELEMENT_SET_NO = 999
REV_AT_EPOCH   = 470
BSTAR          = -.23764146E-1
MEAN_MOTION_DOT = -.194145E-1
MEAN_MOTION_DDOT = 0

CCSDS_OMM_VERS = 2.0
CREATION_DATE  = 
ORIGINATOR     = 

OBJECT_NAME    = STARLINK-36751
OBJECT_ID      = 2026-026J
CENTER_NAME    = EARTH
REF_FRAME      = TEME
TIME_SYSTEM    = UTC
MEAN_ELEMENT_THEORY = SGP/SGP4

EPOCH          = 2026-03-05T22:00:01.999584
MEAN_MOTION    = 15.64113869
ECCENTRICITY   = .00018539
INCLINATION    = 97.2839
RA_OF_ASC_NODE = 119.4019
ARG_OF_PERICENTER = 64.4631
MEAN_ANOMALY   = 33.4243

EPHEMERIS_TYPE = 0
CLASSIFICATION_TYPE = U
NORAD_CAT_ID   = 67729
ELEMENT_SET_NO = 999
REV_AT_EPOCH   = 470
BSTAR          = -.23269299E-1
MEAN_MOTION_DOT = -.1944051E-1
MEAN_MOTION_DDOT = 0

CCSDS_OMM_VERS = 2.0
CREATION_DATE  = 
ORIGINATOR     = 

OBJECT_NAME    = STARLINK-36747
OBJECT_ID      = 2026-026K
CENTER_NAME    = EARTH
REF_FRAME      = TEME
TIME_SYSTEM    = UTC
MEAN_ELEMENT_THEORY = SGP/SGP4

EPOCH          = 2026-03-05T22:00:01.999584
MEAN_MOTION    = 15.64012451
ECCENTRICITY   = .00018277
INCLINATION    = 97.2837
RA_OF_ASC_NODE = 119.3977
ARG_OF_PERICENTER = 61.8054
MEAN_ANOMALY   = 26.0975

EPHEMERIS_TYPE = 0
CLASSIFICATION_TYPE = U
NORAD_CAT_ID   = 67730
ELEMENT_SET_NO = 999
REV_AT_EPOCH   = 470
BSTAR          = -.23317533E-1
MEAN_MOTION_DOT = -.194068E-1
MEAN_MOTION_DDOT = 0

CCSDS_OMM_VERS = 2.0
CREATION_DATE  = 
ORIGINATOR     = 

OBJECT_NAME    = STARLINK-36315
OBJECT_ID      = 2026-026L
CENTER_NAME    = EARTH
REF_FRAME      = TEME
TIME_SYSTEM    = UTC
MEAN_ELEMENT_THEORY = SGP/SGP4

EPOCH          = 2026-03-05T22:00:01.999584
MEAN_MOTION    = 15.64289192
ECCENTRICITY   = .00017045
INCLINATION    = 97.2838
RA_OF_ASC_NODE = 119.4057
ARG_OF_PERICENTER = 76.1790
MEAN_ANOMALY   = 29.7053

EPHEMERIS_TYPE = 0
CLASSIFICATION_TYPE = U
NORAD_CAT_ID   = 67731
ELEMENT_SET_NO = 999
REV_AT_EPOCH   = 470
BSTAR          = -.230938E-1
MEAN_MOTION_DOT = -.1942892E-1
MEAN_MOTION_DDOT = 0

CCSDS_OMM_VERS = 2.0
CREATION_DATE  = 
ORIGINATOR     = 

OBJECT_NAME    = STARLINK-36260
OBJECT_ID      = 2026-026M
CENTER_NAME    = EARTH
REF_FRAME      = TEME
TIME_SYSTEM    = UTC
MEAN_ELEMENT_THEORY = SGP/SGP4

EPOCH          = 2026-03-05T22:00:01.999584
MEAN_MOTION    = 15.64669890
ECCENTRICITY   = .00019834
INCLINATION    = 97.2837
RA_OF_ASC_NODE = 119.4107
ARG_OF_PERICENTER = 71.3044
MEAN_ANOMALY   = 46.6150

EPHEMERIS_TYPE = 0
CLASSIFICATION_TYPE = U
NORAD_CAT_ID   = 67732
ELEMENT_SET_NO = 999
REV_AT_EPOCH   = 470
BSTAR          = -.22766262E-1
MEAN_MOTION_DOT = -.1944597E-1
MEAN_MOTION_DDOT = 0

CCSDS_OMM_VERS = 2.0
CREATION_DATE  = 
ORIGINATOR     = 

OBJECT_NAME    = STARLINK-36746
OBJECT_ID      = 2026-026N
CENTER_NAME    = EARTH
REF_FRAME      = TEME
TIME_SYSTEM    = UTC
MEAN_ELEMENT_THEORY = SGP/SGP4

EPOCH          = 2026-03-05T22:00:01.999584
MEAN_MOTION    = 15.49229129
ECCENTRICITY   = .00014259
INCLINATION    = 97.2843
RA_OF_ASC_NODE = 119.2245
ARG_OF_PERICENTER = 63.3670
MEAN_ANOMALY   = 337.1826

EPHEMERIS_TYPE = 0
CLASSIFICATION_TYPE = U
NORAD_CAT_ID   = 67733
ELEMENT_SET_NO = 999
REV_AT_EPOCH   = 470
BSTAR          = -.13104242E-2
MEAN_MOTION_DOT = -.70824E-3
MEAN_MOTION_DDOT = 0

